#aV2012  5  9  0  0  0.00000000     288 DD+AD WGS84 FIT  NGA
## 1687 259200.00000000   300.00000000 56056 0.0000000000000
+   31     1  2  3  4  5  6  7  8  9 10 11 12 13 14 15 16 17
+         18 19 20 21 22 23 25 26 27 28 29 30 31 32  0  0  0
+          0  0  0  0  0  0  0  0  0  0  0  0  0  0  0  0  0
+          0  0  0  0  0  0  0  0  0  0  0  0  0  0  0  0  0
+          0  0  0  0  0  0  0  0  0  0  0  0  0  0  0  0  0
++         2  2  2  2  2  2  2  2  2  2  2  2  2  2  2  2  2
++         2  2  2  2  2  2  2  2  2  2  2  2  2  2  2  0  0
++         0  0  0  0  0  0  0  0  0  0  0  0  0  0  0  0  0
++         0  0  0  0  0  0  0  0  0  0  0  0  0  0  0  0  0
++         0  0  0  0  0  0  0  0  0  0  0  0  0  0  0  0  0
%c cc cc ccc ccc cccc cccc cccc cccc ccccc ccccc ccccc ccccc
%c cc cc ccc ccc cccc cccc cccc cccc ccccc ccccc ccccc ccccc
%f  0.0000000  0.000000000  0.00000000000  0.000000000000000
%f  0.0000000  0.000000000  0.00000000000  0.000000000000000
%i    0    0    0    0      0      0      0      0         0
%i    0    0    0    0      0      0      0      0         0
/*      NGA, ST. LOUIS,MO.                                  
/*   EPHEMERIS COMPUTED FROM  1 DAYS OF DATA
/*   EPOCHA SMOOTHER  
/* CCCCCCCCCCCCCCCCCCCCCCCCCCCCCCCCCCCCCCCCCCCCCCCCCCCCCCCCC
*  2012  5  9 10 15  0.00000000                                                 
P  1  -4047.651789  17373.427483 -19675.275803    255.434056                    
V  1 -22937.002030   9972.611778  13558.591248      0.024843                    
P  2  22400.578265 -13535.563123   2528.515451    389.595128                    
V  2   4570.877590   2085.410802 -31358.603633      0.013543                    
P  3 -11018.555381  17262.294452  16299.522776     46.521027                    
V  3  -4111.787184 -21552.299993  19768.435729      0.050525                    
P  4  24806.672017  -4895.569016  -8884.657506    177.986602                    
V  4  -8484.137601   7424.703259 -28261.817252      0.116151                    
P  5  14174.687104  -8382.062728  20840.523799   -313.426665                    
V  5  21599.960197  15404.957328  -8362.960564     -0.039045                    
P  6 -13931.418621  12580.783163  18804.327139     27.186148                    
V  6  -1588.161741 -23813.313710  15154.913380     -0.022155                    
P  7  10603.498833  11216.663097  21662.958346     79.646930                    
V  7 -24644.183409  11940.867536   5637.531411      0.033537                    
P  8  21620.510455   2708.117935  15650.085388      1.178061                    
V  8 -17953.827020   7532.072824  23041.675560      0.000456                    
P  9   8354.779499 -17860.134092 -18369.217981    156.987942                    
V  9  20226.885861  -9040.289526  18524.323953      0.025199                    
P 10  23481.908563   7647.102607  10036.178380    -37.731352                    
V 10   9118.263230   9641.823330 -27586.189813     -0.010370                    
P 11  -7419.602695  21574.106844 -13723.710707   -259.500192                    
V 11 -15429.439395   8499.373855  22649.840993     -0.037972                    
P 12  -2418.941285 -17828.864119 -19611.127953     67.981347                    
V 12  20749.954718  13567.479146 -14704.714099      0.021102                    
P 13   6390.112690  21102.660785  14591.829153    208.508955                    
V 13  -4588.939009  18277.235386 -24273.625999     -0.023535                    
P 14 -14252.177400  -4242.786613 -21838.024165    202.295120                    
V 14   3869.298664 -27825.253792   2719.745457      0.009809                    
P 15   3426.289478 -26038.019461   3087.978130    -91.332417                    
V 15   3268.819230   4117.435375  31223.867180     -0.000236                    
P 16 -14583.163205   6876.389031  21175.392523   -234.251661                    
V 16 -21266.591441 -16227.475537  -9069.126270     -0.013094                    
P 17  14234.802050   6532.444809 -21302.939060    130.070277                    
V 17  -3265.777456  27237.180563   5888.341037     -0.028256                    
P 18 -19523.527535 -17744.366137   4821.149105    194.855943                    
V 18   6538.574770    448.272991  30039.060815      0.018256                    
P 19  -7319.658577  24844.533005   4791.475612   -263.532727                    
V 19  -2114.359279  -6618.176706  31203.408359     -0.037358                    
P 20   7632.341985  19288.430589 -16784.300018     63.331899                    
V 20 -19172.325642  -9050.571751 -19235.336468      0.001104                    
P 21 -15638.170094  -9066.752158  20113.844220   -222.531567                    
V 21  21572.205333 -11518.510041  11284.029266     -0.024552                    
P 22 -23631.127046  -8153.830697  -8975.245542    143.770307                    
V 22  -7647.394039  -9453.846795  28031.040970      0.003937                    
P 23    943.622642  25983.211815   4360.887739    207.048809                    
V 23  -3536.253123   5289.507276 -31336.487744     -0.036506                    
P 25 -15971.417958 -18762.071179 -10030.844285     33.803724                    
V 25  11800.217723   5097.909484 -28351.523735      0.004299                    
P 26  12272.783822 -18226.938624  14023.038469   -404.955881                    
V 26   -884.189535  19078.468695  24860.314540      0.088951                    
P 27  14265.424582 -17497.144452 -12974.656663    386.058722                    
V 27  16608.042943  -6369.084342  26120.228000      0.041146                    
P 28  22940.727596  11578.763464  -6596.504692    142.129124                    
V 28   6017.773588   7058.100516  30536.603380      0.041185                    
P 29  -5724.510440 -23106.419845  11893.961976    311.264960                    
V 29   3916.574130 -14631.914397 -26647.901473      0.038746                    
P 30 -21586.810152    448.410670  15113.858870   -171.387857                    
V 30 -16476.486213 -11243.030054 -22660.727637     -0.198139                    
P 31 -24836.735420   6137.817617  -7401.819316    240.159836                    
V 31   7868.797616  -5775.177651 -30174.593616      0.041583                    
P 32  -1577.376766  17143.934528 -20133.065796   -441.835158                    
V 32 -20756.943371 -15588.360012 -11058.090449     -0.041086                    
EOF
